ONEWEB-0258             
1 48976U 21060K   24212.92779982  .00000026  00000+0  34583-4 0  9991
2 48976  87.9124   5.4227 0001782  95.9523 264.1811 13.16592355149296
ONEWEB-0259             
1 48977U 21060L   24212.92146170 -.00000018  00000+0 -81728-4 0  9995
2 48977  87.9124   5.4084 0001570  98.3049 261.8260 13.16592946149325
ONEWEB-0260             
1 48978U 21060M   24212.91276628 -.00000097  00000+0 -28618-3 0  9992
2 48978  87.9128   5.4392 0002194  80.5474 279.5904 13.16593390149303
ONEWEB-0261             
1 48979U 21060N   24212.95788515  .00000095  00000+0  21613-3 0  9994
2 48979  87.9128   5.4253 0001470  76.0800 284.0494 13.16595105149366
ONEWEB-0262             
1 48980U 21060P   24212.93887947  .00000077  00000+0  16762-3 0  9992
2 48980  87.9123   5.3919 0001334  98.9435 261.1847 13.16595357149320
ONEWEB-0263             
1 48981U 21060Q   24212.89455711  .00000026  00000+0  33173-4 0  9998
2 48981  87.9129   5.4185 0001342  84.7790 275.3494 13.16595033149280
ONEWEB-0264             
1 48982U 21060R   24212.70375830  .00000056  00000+0  11320-3 0  9994
2 48982  87.9127   5.4673 0001744  92.7589 267.3741 13.16596920149262
ONEWEB-0266             
1 48984U 21060T   24212.95313934  .00000027  00000+0  36649-4 0  9990
2 48984  87.9124   5.3942 0001818  97.3383 262.7955 13.16594500149284
